STARLINK-36699          
1 67652U 26022E   26046.50002314 -.01372058  00000+0 -98191-2 0  9998
2 67652  97.2831  79.3803 0001303  94.3755 337.0383 15.76337993  3326
STARLINK-36694          
1 67653U 26022F   26046.50002314 -.01842840  00000+0 -12657-1 0  9992
2 67653  97.2831  79.3841 0001703  94.9024 346.6076 15.77649439  3325
STARLINK-36620          
1 67654U 26022G   26046.50002314 -.01733041  00000+0 -12250-1 0  9994
2 67654  97.2833  79.3851 0001256  81.1394   3.7851 15.76820458  3323
STARLINK-36720          
1 67655U 26022H   26046.50002314 -.01731480  00000+0 -11874-1 0  9991
2 67655  97.2835  79.3907 0001549  87.9788   5.7626 15.77493754  3322
STARLINK-36688          
1 67656U 26022J   26046.50002314 -.01812601  00000+0 -12598-1 0  9991
2 67656  97.2836  79.3906 0001814  80.5136  17.6052 15.77330556  3329
STARLINK-36706          
1 67657U 26022K   26046.50002314 -.01834180  00000+0 -12500-1 0  9991
2 67657  97.2815  79.3921 0001619  80.6653  24.4761 15.77808806  3299
STARLINK-36701          
1 67658U 26022L   26046.50002314 -.01833305  00000+0 -12539-1 0  9992
2 67658  97.2816  79.3956 0001696  86.8396  24.4875 15.77725477  3328
STARLINK-36642          
1 67659U 26022M   26046.50002314 -.01844175  00000+0 -12464-1 0  9997
2 67659  97.2813  79.3991 0001463  91.2917  25.3793 15.78012164  3328
STARLINK-36673          
1 67660U 26022N   26046.50002314 -.01857670  00000+0 -12376-1 0  9995
2 67660  97.2810  79.4004 0001658  94.0872  29.7278 15.78352066  3324
STARLINK-36674          
1 67661U 26022P   26046.50002314 -.01838779  00000+0 -11872-1 0  9995
2 67661  97.2830  79.4033 0001684  98.1030  31.6782 15.79012297  3321
STARLINK-36700          
1 67662U 26022Q   26046.50002314 -.01844117  00000+0 -11943-1 0  9998
2 67662  97.2807  79.4076 0001527 104.9529  37.0255 15.78955799  3325
STARLINK-36675          
1 67663U 26022R   26046.50002314 -.01849508  00000+0 -12193-1 0  9996
2 67663  97.2810  79.4055 0001812  89.5368  45.6536 15.78567716  3328
